STARLINK-32835          
1 63051U 25034Y   26068.95368218  .00040595  00000+0  13753-2 0  9996
2 63051  53.1595 269.9389 0001166  88.4751 271.6383 15.30198308 58942
TEVEL2-4                
1 63213U 25052D   26068.69417974  .00020990  00000+0  70363-3 0  9999
2 63213  97.4009 325.1237 0004733  95.3468 264.8313 15.30925813 54879
